1 17802U 82055AU  13098.33866624  .00000234  00000-0  32778-3 0  9996
2 17802 065.8336 166.8086 0036564 176.6828 306.0852 13.74894775375529
1 17804U 82055AW  13098.45287536  .00001214  00000-0  10124-2 0  9999
2 17804 065.8217 107.8296 0009083 175.6641 347.3138 13.92167008384836
1 17805U 82055AX  13098.05746626  .00001327  00000-0  10863-2 0  9991
2 17805 065.8236 065.1319 0014175 215.5888 215.2129 13.92888626385778
1 17806U 82055AY  13098.77495355 -.00000022  00000-0  56386-4 0  9995
2 17806 065.8351 208.3092 0052717 027.1437 115.1445 13.80286037381766
1 17815U 86019ME  13098.17119624  .00000837  00000-0  30222-3 0  9998
2 17815 098.5915 159.5164 0029809 182.2586 211.8293 14.35915329370134
1 17842U 86030C   13098.72454885  .00000973  00000-0  31639-3 0  9997
2 17842 074.0269 189.8670 0016472 051.8026 104.0821 14.40071780371383
1 17843U 86030D   13098.44449907  .00000975  00000-0  31487-3 0  9999
2 17843 074.0360 191.7697 0015113 023.1049 101.7294 14.40406296410189
1 17872U 76092F   13098.12421274 -.00000256  00000-0  10000-3 0  9991
2 17872 013.0220 330.8956 0018494 060.4558 299.6703 01.00235168 70620
1 17873U 79035E   13098.00376633  .00000060  00000-0  00000+0 0  9994
2 17873 014.1130 338.1292 0032650 108.9345 164.8254 01.00134681136905
1 17874U 84016F   13098.28732070  .00000017  00000-0  10000-3 0  9998
2 17874 014.6318 357.0143 0042019 092.8174 267.6241 01.00310822 74547
1 17875U 84090F   13097.46434996  .00000022  00000-0  10000-3 0  9992
2 17875 014.2679 354.3299 0019304 038.1577 321.9416 01.01260200108076
1 17875U 84090F   13097.46438610  .00000022  00000-0  10000-3 0  9999
2 17875 014.2681 354.3300 0019774 039.5924 320.5103 01.01260194108074
1 17911U 87038A   13097.90894943  .00003185  00000-0  23032-3 0  9991
2 17911 082.4903 247.1321 0014404 066.0521 294.2211 15.03646751411005
1 17912U 87038B   13098.86257781  .00000527  00000-0  63263-4 0  9999
2 17912 082.5046 045.3379 0019819 223.3556 136.6100 14.82003562400981
1 17973U 87041A   13097.98441516 -.00000296  00000-0 -12970-3 0  9996
2 17973 070.8998 260.2303 0033716 263.9804 242.6587 14.13857325336700
1 17974U 87041B   13098.00037897  .00000118  00000-0  82573-4 0  9992
2 17974 071.0090 255.4619 0015133 219.5079 289.1928 14.17031737339755
1 18095U 87049A   13098.40949963  .00000172  00000-0  72506-4 0  9990
2 18095 074.0405 220.7758 0015878 325.9892 068.3575 14.32774199349932
1 18096U 87049B   13098.16028668  .00000246  00000-0  93691-4 0  9994
2 18096 074.0422 156.1866 0022707 340.7322 081.9405 14.35827721352206
1 18106U 87050D   13098.68981976  .00000154  00000-0  00000+0 0  9990
2 18106 069.5806 339.6779 5708609 161.6941 301.3449 02.03578920189300
1 18114U 87051B   13098.64175983 -.00000028  00000-0 -85846-4 0  9997
2 18114 074.0027 304.7938 0006342 175.6391 218.9324 12.46951289175164
1 18116U 87051D   13098.88500089  .00000015  00000-0  20451-3 0  9998
2 18116 074.0052 217.8861 0019713 348.9681 158.9028 12.50660911178684
1 18117U 87051E   13098.20141743  .00000023  00000-0  24802-3 0  9996
2 18117 074.0040 176.3934 0030199 301.8907 072.4091 12.52458904180291
1 18118U 87051F   13098.64425015 -.00000015  00000-0  99546-5 0  9993
2 18118 074.0013 134.9527 0039218 251.8469 255.7635 12.54199771181981
1 18119U 87051G   13098.13849448 -.00000041  00000-0 -15081-3 0  9998
2 18119 074.0019 093.8474 0048923 207.3766 221.0224 12.55965186183581
1 18120U 87051H   13098.05733693 -.00000006  00000-0  58675-4 0  9992
2 18120 074.0062 048.6493 0056788 147.1456 286.4962 12.57877588185378
1 18121U 87051J   13098.14598611 -.00000063  00000-0 -44158-3 0  9996
2 18121 074.0045 147.7023 0131546 158.1972 262.0862 12.22487444151980
1 18123U 87053A   13098.52311851  .00000164  00000-0  10113-3 0  9995
2 18123 098.7553 289.5909 0012890 327.3893 130.5603 14.18050459333959
1 18129U 87054A   13098.64787574  .00000020  00000-0  58180-5 0  9993
2 18129 082.9230 288.0681 0011938 029.4336 014.3505 13.72880668292458
1 18130U 87054B   13098.82513131  .00000159  00000-0  14717-3 0  9990
2 18130 082.9237 248.7980 0015755 326.8256 033.1911 13.76359548295329
1 18131U 87054C   13097.97894147  .00000208  00000-0  20597-3 0  9993
2 18131 082.9148 289.0254 0031406 044.6976 111.2279 13.73568189291600
1 18152U 87055A   13098.18600335  .00002770  00000-0  22043-3 0  9999
2 18152 082.4986 339.0784 0016299 024.2916 335.9073 14.99945966399633
1 18153U 87055B   13098.51239425  .00000514  00000-0  61128-4 0  9997
2 18153 082.4982 100.7084 0023599 084.7940 061.2061 14.82238592391534
1 18160U 87057A   13098.55098280  .00000057  00000-0  43550-4 0  9994
2 18160 082.9320 143.4023 0030819 326.1564 203.4957 13.75461987272773
1 18214U 87062A   13098.21404247  .00002286  00000-0  17522-3 0  9992
2 18214 082.5051 140.2495 0013829 016.6470 343.5205 15.01327580398229
1 18215U 87062B   13098.52786554  .00000564  00000-0  67600-4 0  9991
2 18215 082.5104 277.3232 0022429 124.7477 269.3078 14.82142130389153
1 18231U 86019RN  13098.01150503 -.00000001  00000-0 -37643-3 0  9994
2 18231 098.8120 126.0630 4700587 208.7303 188.3309 05.52985675491465
1 18257U 87006C   13098.16622402  .00001453  00000-0  35502-3 0  9999
2 18257 074.0390 149.4571 0005544 027.3108 033.0674 14.53510241452547
1 18271U 65027AA  13098.46288207  .00000163  00000-0  55048-3 0  9992
2 18271 090.2750 244.2397 0034364 180.4411 211.9361 12.95293188265334
1 18272U 76067BL  13097.92523491  .00000186  00000-0  79324-3 0  9994
2 18272 065.8537 039.0926 0696803 328.3918 060.8810 12.39003033167114
1 18274U 86030E   13098.67280096  .00001671  00000-0  40651-3 0  9992
2 18274 074.0498 288.2669 0032724 345.0215 134.1936 14.53284145405884
1 18282U 85094T   13098.85783243  .00000792  00000-0  37680-2 0  9992
2 18282 082.6287 062.6094 0007867 287.9993 100.4521 12.73250334272596
1 18302U 78026HD  13098.59644178  .00000486  00000-0  42626-3 0  9993
2 18302 098.7752 083.4442 0246547 122.6586 305.5123 13.76731977409707
1 18312U 87068A   13098.28744711  .00000089  00000-0  66045-4 0  9991
2 18312 082.5569 160.2092 0011065 256.5618 170.8500 13.84618215295587
1 18316U 87070A   13097.47621069 -.00000108  00000-0  10000-3 0  9990
2 18316 014.6172 019.8231 0008237 332.0458 027.8655 00.99336533 81026
1 18328U 87073A   13097.39799945 -.00000127  00000-0  10000-3 0  9997
2 18328 015.8423 010.2448 0007114 056.1797 303.8446 00.96484415 90529
1 18339U 87074F   13098.51749257 -.00000001  00000-0 -64638-4 0  9995
2 18339 082.5579 121.8639 0009656 353.6347 161.4053 12.65419429181776
1 18340U 87074G   13098.85118572  .00000017  00000-0  39242-4 0  9992
2 18340 082.5699 235.8396 0040502 181.9864 333.1207 12.55534877172669
1 18350U 87078A   13097.48205298 -.00000080  00000-0  10000-3 0  9998
2 18350 013.0783 034.7491 0005994 290.7209 069.1753 00.98907003 92867
1 18355U 87079A   13098.67389787  .00000076  00000-0  00000+0 0  9991
2 18355 064.8837 120.3242 0008544 291.5157 222.7701 02.13101091198978
1 18356U 87079B   13098.59895289  .00000077  00000-0  00000+0 0  9993
2 18356 064.9014 120.5586 0017190 223.7535 282.2446 02.13102836199060
1 18362U 87080B   13098.12192523  .00000063  00000-0  91535-4 0  9995
2 18362 090.3567 282.5829 0107740 174.1621 257.1696 13.43834837253199
1 18363U 87080C   13098.08632907  .00000068  00000-0  10109-3 0  9998
2 18363 090.3569 282.4968 0106422 184.4935 324.9495 13.43591466253001
1 18365U 87080E   13098.01701372  .00000362  00000-0  53645-3 0  9995
2 18365 090.3438 271.0080 0105001 327.9718 178.8846 13.50261446257035
1 18375U 87079H   13098.08866443 -.00000015  00000-0  39676-4 0  9997
2 18375 064.3573 080.1672 5769601 344.9270 011.4433 04.00050971387911
1 18387U 87084D   13098.22531293 -.00000241  00000-0  10000-3 0  9994
2 18387 014.4719 010.8817 0030983 108.3839 251.9097 01.00032032100628
1 18403U 87087B   13098.23025969  .00000034  00000-0  18284-4 0  9997
2 18403 082.9185 153.1776 0059048 140.1250 280.5570 13.76324767279685
1 18410U 87041C   13098.34076826  .00000054  00000-0  89650-4 0  9992
2 18410 070.9896 210.9491 0202350 039.5579 356.1723 13.73010805297655
1 18411U 87041D   13098.26789501  .00000091  00000-0  12300-3 0  9993
2 18411 071.0349 180.2351 0192130 259.7428 155.7280 13.75376552299848
1 18412U 87041E   13098.65906491  .00000160  00000-0  18317-3 0  9997
2 18412 071.0295 167.3702 0196881 283.2689 222.5221 13.75759163300094
1 18413U 82055BC  13098.39053251  .00000616  00000-0  81304-3 0  9998
2 18413 065.8255 236.8637 0087829 316.9367 073.4023 13.66646615365630
1 18415U 82055BE  13098.60019488  .00000569  00000-0  73783-3 0  9997
2 18415 065.8288 158.4906 0082828 291.9563 220.3284 13.68532799367161
1 18421U 87088A   13098.79003635  .00002714  00000-0  17805-3 0  9999
2 18421 082.5014 341.2030 0013353 148.6437 258.9677 15.07222977387306
1 18422U 87088B   13098.80069764  .00000449  00000-0  53444-4 0  9990
2 18422 082.5130 170.1168 0021366 079.7103 059.3534 14.82012932375069
1 18443U 87091A   13098.42245675 -.00000287  00000-0  00000+0 0  9998
2 18443 014.4433 010.0843 0001952 087.5066 214.2573 01.00227125 72504
1 18446U 87091D   13098.46567384 -.00000093  00000-0  00000+0 0  9994
2 18446 014.4552 010.2174 0022270 119.2508 041.8007 01.00255100 81766
1 18466U 76077FB  13098.47615976  .00076477  00000-0  43748-1 0  9996
2 18466 102.8486 105.1509 0088287 079.6178 281.4912 14.07030037224491
1 18470U 73086GU  13098.39768581  .00000048  00000-0  96398-3 0  9992
2 18470 101.7834 254.3733 0180311 296.0740 089.6738 12.06580306238628
1 18471U 76067BN  13097.92490157  .00000524  00000-0  12062-2 0  9998
2 18471 065.7568 260.4342 0981663 230.8207 283.2281 12.18378860139830
1 18475U 75004HK  13098.32187728  .00000533  00000-0  13382-3 0  9991
2 18475 097.9811 227.2950 0051503 105.0960 320.4371 14.54212983467695
1 18476U 87041F   13098.87235258  .00000036  00000-0  74035-4 0  9999
2 18476 070.9920 242.1539 0207868 030.8709 111.2170 13.72150422296859
